STARLINK-3054_new
1 19167C 21082AP  21326.13420215 -.00659662  00000-0 -11484-1 0  3261
2 19167  70.0001 293.3430 0003450 268.4915  50.8401 15.51262332    17
STARLINK-3054_old
1 29167C 21082AP  21325.18739394 -.00650569  00000-0 -10804-1 0  3257
2 29167  69.9999 295.9345 0003477 268.9174 162.0908 15.52578335    16
